<?xml version="1.0" encoding="UTF-8"?>
<ndm xmlns:xsi="http://www.w3.org/2001/XMLSchema-instance" xsi:noNamespaceSchemaLocation="https://sanaregistry.org/r/ndmxml_unqualified/ndmxml-2.0.0-master-2.0.xsd">
<omm id="CCSDS_OMM_VERS" version="2.0">
<header><CREATION_DATE/><ORIGINATOR/></header><body><segment><metadata><OBJECT_NAME>KUIPER-00029</OBJECT_NAME><OBJECT_ID>2025-088U</OBJECT_ID><CENTER_NAME>EARTH</CENTER_NAME><REF_FRAME>TEME</REF_FRAME><TIME_SYSTEM>UTC</TIME_SYSTEM><MEAN_ELEMENT_THEORY>SGP4</MEAN_ELEMENT_THEORY></metadata><data><meanElements><EPOCH>2025-11-22T01:28:06.502368</EPOCH><MEAN_MOTION>14.80196717</MEAN_MOTION><ECCENTRICITY>.0010114</ECCENTRICITY><INCLINATION>51.9005</INCLINATION><RA_OF_ASC_NODE>207.2565</RA_OF_ASC_NODE><ARG_OF_PERICENTER>124.8176</ARG_OF_PERICENTER><MEAN_ANOMALY>235.3740</MEAN_ANOMALY></meanElements><tleParameters><EPHEMERIS_TYPE>0</EPHEMERIS_TYPE><CLASSIFICATION_TYPE>U</CLASSIFICATION_TYPE><NORAD_CAT_ID>63742</NORAD_CAT_ID><ELEMENT_SET_NO>999</ELEMENT_SET_NO><REV_AT_EPOCH>3167</REV_AT_EPOCH><BSTAR>.37933E-3</BSTAR><MEAN_MOTION_DOT>.2689E-4</MEAN_MOTION_DOT><MEAN_MOTION_DDOT>0</MEAN_MOTION_DDOT></tleParameters></data></segment></body></omm>
<omm id="CCSDS_OMM_VERS" version="2.0">
<header><CREATION_DATE/><ORIGINATOR/></header><body><segment><metadata><OBJECT_NAME>KUIPER-00030</OBJECT_NAME><OBJECT_ID>2025-088V</OBJECT_ID><CENTER_NAME>EARTH</CENTER_NAME><REF_FRAME>TEME</REF_FRAME><TIME_SYSTEM>UTC</TIME_SYSTEM><MEAN_ELEMENT_THEORY>SGP4</MEAN_ELEMENT_THEORY></metadata><data><meanElements><EPOCH>2025-11-21T22:25:08.488992</EPOCH><MEAN_MOTION>14.79863929</MEAN_MOTION><ECCENTRICITY>.0015865</ECCENTRICITY><INCLINATION>51.9004</INCLINATION><RA_OF_ASC_NODE>227.0332</RA_OF_ASC_NODE><ARG_OF_PERICENTER>73.9585</ARG_OF_PERICENTER><MEAN_ANOMALY>286.3124</MEAN_ANOMALY></meanElements><tleParameters><EPHEMERIS_TYPE>0</EPHEMERIS_TYPE><CLASSIFICATION_TYPE>U</CLASSIFICATION_TYPE><NORAD_CAT_ID>63743</NORAD_CAT_ID><ELEMENT_SET_NO>999</ELEMENT_SET_NO><REV_AT_EPOCH>3167</REV_AT_EPOCH><BSTAR>-.14942E-3</BSTAR><MEAN_MOTION_DOT>-.1365E-4</MEAN_MOTION_DOT><MEAN_MOTION_DDOT>0</MEAN_MOTION_DDOT></tleParameters></data></segment></body></omm>
<omm id="CCSDS_OMM_VERS" version="2.0">
<header><CREATION_DATE/><ORIGINATOR/></header><body><segment><metadata><OBJECT_NAME>KUIPER-00031</OBJECT_NAME><OBJECT_ID>2025-088W</OBJECT_ID><CENTER_NAME>EARTH</CENTER_NAME><REF_FRAME>TEME</REF_FRAME><TIME_SYSTEM>UTC</TIME_SYSTEM><MEAN_ELEMENT_THEORY>SGP4</MEAN_ELEMENT_THEORY></metadata><data><meanElements><EPOCH>2025-11-21T22:46:00.461280</EPOCH><MEAN_MOTION>14.79937974</MEAN_MOTION><ECCENTRICITY>.0005286</ECCENTRICITY><INCLINATION>51.9003</INCLINATION><RA_OF_ASC_NODE>213.0408</RA_OF_ASC_NODE><ARG_OF_PERICENTER>108.4499</ARG_OF_PERICENTER><MEAN_ANOMALY>251.7038</MEAN_ANOMALY></meanElements><tleParameters><EPHEMERIS_TYPE>0</EPHEMERIS_TYPE><CLASSIFICATION_TYPE>U</CLASSIFICATION_TYPE><NORAD_CAT_ID>63744</NORAD_CAT_ID><ELEMENT_SET_NO>999</ELEMENT_SET_NO><REV_AT_EPOCH>3158</REV_AT_EPOCH><BSTAR>-.79104E-4</BSTAR><MEAN_MOTION_DOT>-.826E-5</MEAN_MOTION_DOT><MEAN_MOTION_DDOT>0</MEAN_MOTION_DDOT></tleParameters></data></segment></body></omm>
<omm id="CCSDS_OMM_VERS" version="2.0">
<header><CREATION_DATE/><ORIGINATOR/></header><body><segment><metadata><OBJECT_NAME>KUIPER-00032</OBJECT_NAME><OBJECT_ID>2025-088X</OBJECT_ID><CENTER_NAME>EARTH</CENTER_NAME><REF_FRAME>TEME</REF_FRAME><TIME_SYSTEM>UTC</TIME_SYSTEM><MEAN_ELEMENT_THEORY>SGP4</MEAN_ELEMENT_THEORY></metadata><data><meanElements><EPOCH>2025-11-22T00:57:05.132736</EPOCH><MEAN_MOTION>15.32814023</MEAN_MOTION><ECCENTRICITY>.0005679</ECCENTRICITY><INCLINATION>51.8690</INCLINATION><RA_OF_ASC_NODE>182.8114</RA_OF_ASC_NODE><ARG_OF_PERICENTER>111.1663</ARG_OF_PERICENTER><MEAN_ANOMALY>248.9928</MEAN_ANOMALY></meanElements><tleParameters><EPHEMERIS_TYPE>0</EPHEMERIS_TYPE><CLASSIFICATION_TYPE>U</CLASSIFICATION_TYPE><NORAD_CAT_ID>63745</NORAD_CAT_ID><ELEMENT_SET_NO>999</ELEMENT_SET_NO><REV_AT_EPOCH>3301</REV_AT_EPOCH><BSTAR>.49383E-3</BSTAR><MEAN_MOTION_DOT>.1555E-3</MEAN_MOTION_DOT><MEAN_MOTION_DDOT>0</MEAN_MOTION_DDOT></tleParameters></data></segment></body></omm>
<omm id="CCSDS_OMM_VERS" version="2.0">
<header><CREATION_DATE/><ORIGINATOR/></header><body><segment><metadata><OBJECT_NAME>KUIPER-00033</OBJECT_NAME><OBJECT_ID>2025-088Y</OBJECT_ID><CENTER_NAME>EARTH</CENTER_NAME><REF_FRAME>TEME</REF_FRAME><TIME_SYSTEM>UTC</TIME_SYSTEM><MEAN_ELEMENT_THEORY>SGP4</MEAN_ELEMENT_THEORY></metadata><data><meanElements><EPOCH>2025-11-21T23:36:38.250720</EPOCH><MEAN_MOTION>14.79947482</MEAN_MOTION><ECCENTRICITY>.0004057</ECCENTRICITY><INCLINATION>51.9005</INCLINATION><RA_OF_ASC_NODE>242.8703</RA_OF_ASC_NODE><ARG_OF_PERICENTER>163.0630</ARG_OF_PERICENTER><MEAN_ANOMALY>197.0469</MEAN_ANOMALY></meanElements><tleParameters><EPHEMERIS_TYPE>0</EPHEMERIS_TYPE><CLASSIFICATION_TYPE>U</CLASSIFICATION_TYPE><NORAD_CAT_ID>63746</NORAD_CAT_ID><ELEMENT_SET_NO>999</ELEMENT_SET_NO><REV_AT_EPOCH>3165</REV_AT_EPOCH><BSTAR>.80994E-3</BSTAR><MEAN_MOTION_DOT>.5961E-4</MEAN_MOTION_DOT><MEAN_MOTION_DDOT>0</MEAN_MOTION_DDOT></tleParameters></data></segment></body></omm>
<omm id="CCSDS_OMM_VERS" version="2.0">
<header><CREATION_DATE/><ORIGINATOR/></header><body><segment><metadata><OBJECT_NAME>KUIPER-00034</OBJECT_NAME><OBJECT_ID>2025-088Z</OBJECT_ID><CENTER_NAME>EARTH</CENTER_NAME><REF_FRAME>TEME</REF_FRAME><TIME_SYSTEM>UTC</TIME_SYSTEM><MEAN_ELEMENT_THEORY>SGP4</MEAN_ELEMENT_THEORY></metadata><data><meanElements><EPOCH>2025-11-21T21:01:11.070048</EPOCH><MEAN_MOTION>14.76841223</MEAN_MOTION><ECCENTRICITY>.0003183</ECCENTRICITY><INCLINATION>51.9036</INCLINATION><RA_OF_ASC_NODE>205.7226</RA_OF_ASC_NODE><ARG_OF_PERICENTER>103.7697</ARG_OF_PERICENTER><MEAN_ANOMALY>256.3618</MEAN_ANOMALY></meanElements><tleParameters><EPHEMERIS_TYPE>0</EPHEMERIS_TYPE><CLASSIFICATION_TYPE>U</CLASSIFICATION_TYPE><NORAD_CAT_ID>63747</NORAD_CAT_ID><ELEMENT_SET_NO>999</ELEMENT_SET_NO><REV_AT_EPOCH>3184</REV_AT_EPOCH><BSTAR>.38923E-3</BSTAR><MEAN_MOTION_DOT>.2543E-4</MEAN_MOTION_DOT><MEAN_MOTION_DDOT>0</MEAN_MOTION_DDOT></tleParameters></data></segment></body></omm>
<omm id="CCSDS_OMM_VERS" version="2.0">
<header><CREATION_DATE/><ORIGINATOR/></header><body><segment><metadata><OBJECT_NAME>KUIPER-00035</OBJECT_NAME><OBJECT_ID>2025-088AA</OBJECT_ID><CENTER_NAME>EARTH</CENTER_NAME><REF_FRAME>TEME</REF_FRAME><TIME_SYSTEM>UTC</TIME_SYSTEM><MEAN_ELEMENT_THEORY>SGP4</MEAN_ELEMENT_THEORY></metadata><data><meanElements><EPOCH>2025-11-21T22:18:51.012576</EPOCH><MEAN_MOTION>14.79834420</MEAN_MOTION><ECCENTRICITY>.0006711</ECCENTRICITY><INCLINATION>51.8997</INCLINATION><RA_OF_ASC_NODE>230.6261</RA_OF_ASC_NODE><ARG_OF_PERICENTER>73.2650</ARG_OF_PERICENTER><MEAN_ANOMALY>286.9048</MEAN_ANOMALY></meanElements><tleParameters><EPHEMERIS_TYPE>0</EPHEMERIS_TYPE><CLASSIFICATION_TYPE>U</CLASSIFICATION_TYPE><NORAD_CAT_ID>63748</NORAD_CAT_ID><ELEMENT_SET_NO>999</ELEMENT_SET_NO><REV_AT_EPOCH>3155</REV_AT_EPOCH><BSTAR>.65387E-3</BSTAR><MEAN_MOTION_DOT>.4756E-4</MEAN_MOTION_DOT><MEAN_MOTION_DDOT>0</MEAN_MOTION_DDOT></tleParameters></data></segment></body></omm>
<omm id="CCSDS_OMM_VERS" version="2.0">
<header><CREATION_DATE/><ORIGINATOR/></header><body><segment><metadata><OBJECT_NAME>KUIPER-00037</OBJECT_NAME><OBJECT_ID>2025-088AB</OBJECT_ID><CENTER_NAME>EARTH</CENTER_NAME><REF_FRAME>TEME</REF_FRAME><TIME_SYSTEM>UTC</TIME_SYSTEM><MEAN_ELEMENT_THEORY>SGP4</MEAN_ELEMENT_THEORY></metadata><data><meanElements><EPOCH>2025-11-21T22:18:05.117760</EPOCH><MEAN_MOTION>14.80167614</MEAN_MOTION><ECCENTRICITY>.0008529</ECCENTRICITY><INCLINATION>51.8995</INCLINATION><RA_OF_ASC_NODE>229.5554</RA_OF_ASC_NODE><ARG_OF_PERICENTER>28.7953</ARG_OF_PERICENTER><MEAN_ANOMALY>331.3479</MEAN_ANOMALY></meanElements><tleParameters><EPHEMERIS_TYPE>0</EPHEMERIS_TYPE><CLASSIFICATION_TYPE>U</CLASSIFICATION_TYPE><NORAD_CAT_ID>63749</NORAD_CAT_ID><ELEMENT_SET_NO>999</ELEMENT_SET_NO><REV_AT_EPOCH>3235</REV_AT_EPOCH><BSTAR>.40194E-3</BSTAR><MEAN_MOTION_DOT>.2861E-4</MEAN_MOTION_DOT><MEAN_MOTION_DDOT>0</MEAN_MOTION_DDOT></tleParameters></data></segment></body></omm>
<omm id="CCSDS_OMM_VERS" version="2.0">
<header><CREATION_DATE/><ORIGINATOR/></header><body><segment><metadata><OBJECT_NAME>KUIPER-00038</OBJECT_NAME><OBJECT_ID>2025-088AC</OBJECT_ID><CENTER_NAME>EARTH</CENTER_NAME><REF_FRAME>TEME</REF_FRAME><TIME_SYSTEM>UTC</TIME_SYSTEM><MEAN_ELEMENT_THEORY>SGP4</MEAN_ELEMENT_THEORY></metadata><data><meanElements><EPOCH>2025-11-21T22:44:32.044704</EPOCH><MEAN_MOTION>14.79918907</MEAN_MOTION><ECCENTRICITY>.0008038</ECCENTRICITY><INCLINATION>51.9012</INCLINATION><RA_OF_ASC_NODE>214.5116</RA_OF_ASC_NODE><ARG_OF_PERICENTER>77.3637</ARG_OF_PERICENTER><MEAN_ANOMALY>282.8223</MEAN_ANOMALY></meanElements><tleParameters><EPHEMERIS_TYPE>0</EPHEMERIS_TYPE><CLASSIFICATION_TYPE>U</CLASSIFICATION_TYPE><NORAD_CAT_ID>63750</NORAD_CAT_ID><ELEMENT_SET_NO>999</ELEMENT_SET_NO><REV_AT_EPOCH>3156</REV_AT_EPOCH><BSTAR>.35382E-3</BSTAR><MEAN_MOTION_DOT>.2475E-4</MEAN_MOTION_DOT><MEAN_MOTION_DDOT>0</MEAN_MOTION_DDOT></tleParameters></data></segment></body></omm>

</ndm>
